HAWK-12A                
1 64623U 25138C   26185.96876369  .00006570  00000+0  32216-3 0  9990
2 64623  97.4409 188.4490 0015675  78.3511 281.9481 15.18349439 56561
HAWK-13A                
1 67392U 26004AF  26185.97826334  .00006543  00000+0  31311-3 0  9992
2 67392  97.4441 184.5952 0003619 270.2632  89.8188 15.19299124 26466
HAWK-13C                
1 67393U 26004AG  26186.30742431  .00006575  00000+0  31460-3 0  9996
2 67393  97.4588 185.3249 0003500 272.5564  87.5270 15.19303318 26519
HAWK-13B                
1 67396U 26004AK  26186.30733030  .00006518  00000+0  31188-3 0  9998
2 67396  97.4528 185.1558 0004782 270.5830  89.4856 15.19302501 26518
HAWK-14B                
1 68436U 26067W   26185.87801996  .00006604  00000+0  32457-3 0  9997
2 68436  97.4559 144.0740 0002703  28.7864 331.3519 15.18372438 14625
HAWK-14C                
1 68441U 26067AB  26185.87812813  .00006814  00000+0  33471-3 0  9993
2 68441  97.4497 143.9627 0003623  47.9821 312.1721 15.18374702 14620
HAWK-14A                
1 68448U 26067AJ  26185.35102771  .00005775  00000+0  28429-3 0  9990
2 68448  97.4621 143.6721 0004396  43.5463 316.6118 15.18361940 14540
