{"fetched_at":"2026-07-05T12:47:58.728Z","source":"https://celestrak.org/NORAD/elements/gp.php?NAME=HAWK&FORMAT=JSON","constellation":"hawkeye-360","records":[{"OBJECT_NAME":"HAWK-12A","OBJECT_ID":"2025-138C","EPOCH":"2026-07-04T23:15:01.182816","CLASSIFICATION_TYPE":"U","MEAN_MOTION":15.18349439,"ECCENTRICITY":0.00156755,"INCLINATION":97.4409,"RA_OF_ASC_NODE":188.449,"ARG_OF_PERICENTER":78.3511,"MEAN_ANOMALY":281.9481,"EPHEMERIS_TYPE":0,"NORAD_CAT_ID":64623,"ELEMENT_SET_NO":999,"REV_AT_EPOCH":5656,"BSTAR":0.00032215683,"MEAN_MOTION_DOT":0.0000657,"MEAN_MOTION_DDOT":0},{"OBJECT_NAME":"HAWK-13A","OBJECT_ID":"2026-004AF","EPOCH":"2026-07-04T23:28:41.952576","CLASSIFICATION_TYPE":"U","MEAN_MOTION":15.19299124,"ECCENTRICITY":0.00036194,"INCLINATION":97.4441,"RA_OF_ASC_NODE":184.5952,"ARG_OF_PERICENTER":270.2632,"MEAN_ANOMALY":89.8188,"EPHEMERIS_TYPE":0,"NORAD_CAT_ID":67392,"ELEMENT_SET_NO":999,"REV_AT_EPOCH":2646,"BSTAR":0.00031310891,"MEAN_MOTION_DOT":0.00006543,"MEAN_MOTION_DDOT":0},{"OBJECT_NAME":"HAWK-13C","OBJECT_ID":"2026-004AG","EPOCH":"2026-07-05T07:22:41.460384","CLASSIFICATION_TYPE":"U","MEAN_MOTION":15.19303318,"ECCENTRICITY":0.00035006,"INCLINATION":97.4588,"RA_OF_ASC_NODE":185.3249,"ARG_OF_PERICENTER":272.5564,"MEAN_ANOMALY":87.527,"EPHEMERIS_TYPE":0,"NORAD_CAT_ID":67393,"ELEMENT_SET_NO":999,"REV_AT_EPOCH":2651,"BSTAR":0.00031460457,"MEAN_MOTION_DOT":0.00006575,"MEAN_MOTION_DDOT":0},{"OBJECT_NAME":"HAWK-13B","OBJECT_ID":"2026-004AK","EPOCH":"2026-07-05T07:22:33.337920","CLASSIFICATION_TYPE":"U","MEAN_MOTION":15.19302501,"ECCENTRICITY":0.00047829,"INCLINATION":97.4528,"RA_OF_ASC_NODE":185.1558,"ARG_OF_PERICENTER":270.583,"MEAN_ANOMALY":89.4856,"EPHEMERIS_TYPE":0,"NORAD_CAT_ID":67396,"ELEMENT_SET_NO":999,"REV_AT_EPOCH":2651,"BSTAR":0.00031188315,"MEAN_MOTION_DOT":0.00006518,"MEAN_MOTION_DDOT":0},{"OBJECT_NAME":"HAWK-14B","OBJECT_ID":"2026-067W","EPOCH":"2026-07-04T21:04:20.924544","CLASSIFICATION_TYPE":"U","MEAN_MOTION":15.18372438,"ECCENTRICITY":0.00027038,"INCLINATION":97.4559,"RA_OF_ASC_NODE":144.074,"ARG_OF_PERICENTER":28.7864,"MEAN_ANOMALY":331.3519,"EPHEMERIS_TYPE":0,"NORAD_CAT_ID":68436,"ELEMENT_SET_NO":999,"REV_AT_EPOCH":1462,"BSTAR":0.00032456516,"MEAN_MOTION_DOT":0.00006604,"MEAN_MOTION_DDOT":0},{"OBJECT_NAME":"HAWK-14C","OBJECT_ID":"2026-067AB","EPOCH":"2026-07-04T21:04:30.270432","CLASSIFICATION_TYPE":"U","MEAN_MOTION":15.18374702,"ECCENTRICITY":0.00036238,"INCLINATION":97.4497,"RA_OF_ASC_NODE":143.9627,"ARG_OF_PERICENTER":47.9821,"MEAN_ANOMALY":312.1721,"EPHEMERIS_TYPE":0,"NORAD_CAT_ID":68441,"ELEMENT_SET_NO":999,"REV_AT_EPOCH":1462,"BSTAR":0.00033470881,"MEAN_MOTION_DOT":0.00006814,"MEAN_MOTION_DDOT":0},{"OBJECT_NAME":"HAWK-14A","OBJECT_ID":"2026-067AJ","EPOCH":"2026-07-04T08:25:28.794144","CLASSIFICATION_TYPE":"U","MEAN_MOTION":15.1836194,"ECCENTRICITY":0.00043969,"INCLINATION":97.4621,"RA_OF_ASC_NODE":143.6721,"ARG_OF_PERICENTER":43.5463,"MEAN_ANOMALY":316.6118,"EPHEMERIS_TYPE":0,"NORAD_CAT_ID":68448,"ELEMENT_SET_NO":999,"REV_AT_EPOCH":1454,"BSTAR":0.00028429441,"MEAN_MOTION_DOT":0.00005775,"MEAN_MOTION_DDOT":0}]}
